API VERSION: 1.2
API SOURCE: NASA/JPL Horizons API



*******************************************************************************
Ephemeris / API_USER Mon Oct 30 14:06:49 2023 Pasadena, USA      / Horizons    
*******************************************************************************
Target body name: Moon (301)                      {source: DE441}
Center body name: Earth (399)                     {source: DE441}
Center-site name: GEOCENTRIC
*******************************************************************************
Start time      : A.D. 2071-Jan-01 00:00:00.0000 UT      
Stop  time      : A.D. 2072-Jan-01 00:00:00.0000 UT      
Step-size       : 60 minutes
*******************************************************************************
Target pole/equ : MOON_ME                         {East-longitude positive}
Target radii    : 1737.4, 1737.4, 1737.4 km       {Equator_a, b, pole_c}       
Center geodetic : 0.0, 0.0, -6378.137             {E-lon(deg),Lat(deg),Alt(km)}
Center cylindric: 0.0, 0.0, 0.0                   {E-lon(deg),Dxy(km),Dz(km)}
Center pole/equ : ITRF93                          {East-longitude positive}
Center radii    : 6378.137, 6378.137, 6356.752 km {Equator_a, b, pole_c}       
Target primary  : Earth
Vis. interferer : MOON (R_eq= 1737.400) km        {source: DE441}
Rel. light bend : Sun                             {source: DE441}
Rel. lght bnd GM: 1.3271E+11 km^3/s^2                                          
Atmos refraction: NO (AIRLESS)
RA format       : HMS
Time format     : CAL 
Calendar mode   : Mixed Julian/Gregorian
EOP file        : eop.231027.p240119                                           
EOP coverage    : DATA-BASED 1962-JAN-20 TO 2023-OCT-27. PREDICTS-> 2024-JAN-18
Units conversion: 1 au= 149597870.700 km, c= 299792.458 km/s, 1 day= 86400.0 s 
Table cut-offs 1: Elevation (-90.0deg=NO ),Airmass (>38.000=NO), Daylight (NO )
Table cut-offs 2: Solar elongation (  0.0,180.0=NO ),Local Hour Angle( 0.0=NO )
Table cut-offs 3: RA/DEC angular rate (     0.0=NO )                           
Table format    : Comma Separated Values (spreadsheet)
***********************************************************************************************************************************************
 Date__(UT)__HR:MN, , , R.A._(ICRF), DEC__(ICRF),      Illu%,  ObsSub-LON, ObsSub-LAT,  SunSub-LON, SunSub-LAT,    NP.ang,  NP.dist,     S-T-O,
***********************************************************************************************************************************************
$$SOE
 2071-May-04 06:00, , , 06 37 31.94, +17 58 14.5,   22.26918,    0.728681,   6.673137,  124.548291,  -0.926663,    4.2631,  971.530,  123.6874,
 2071-May-04 07:00, , , 06 40 03.74, +17 56 01.4,   22.67871,    0.786702,   6.668127,  124.038970,  -0.927712,    4.5280,  971.408,  123.1252,
 2071-May-04 08:00, , , 06 42 35.43, +17 53 41.0,   23.09072,    0.844503,   6.662370,  123.529658,  -0.928764,    4.7922,  971.283,  122.5632,
 2071-May-04 09:00, , , 06 45 07.00, +17 51 13.3,   23.50516,    0.902076,   6.655868,  123.020356,  -0.929818,    5.0556,  971.155,  122.0014,
 2071-May-04 10:00, , , 06 47 38.44, +17 48 38.4,   23.92198,    0.959415,   6.648622,  122.511064,  -0.930874,    5.3183,  971.025,  121.4398,
 2071-May-04 11:00, , , 06 50 09.75, +17 45 56.2,   24.34115,    1.016513,   6.640633,  122.001783,  -0.931933,    5.5803,  970.892,  120.8785,
 2071-May-04 12:00, , , 06 52 40.93, +17 43 06.9,   24.76261,    1.073365,   6.631904,  121.492511,  -0.932993,    5.8414,  970.756,  120.3174,
 2071-May-04 13:00, , , 06 55 11.97, +17 40 10.4,   25.18631,    1.129964,   6.622437,  120.983249,  -0.934056,    6.1016,  970.618,  119.7565,
 2071-May-04 14:00, , , 06 57 42.86, +17 37 06.8,   25.61222,    1.186304,   6.612234,  120.473997,  -0.935121,    6.3610,  970.478,  119.1959,
 2071-May-04 15:00, , , 07 00 13.61, +17 33 56.1,   26.04027,    1.242378,   6.601296,  119.964755,  -0.936188,    6.6194,  970.335,  118.6354,
 2071-May-04 16:00, , , 07 02 44.21, +17 30 38.4,   26.47043,    1.298182,   6.589626,  119.455524,  -0.937258,    6.8769,  970.190,  118.0753,
 2071-May-04 17:00, , , 07 05 14.66, +17 27 13.7,   26.90265,    1.353708,   6.577227,  118.946303,  -0.938329,    7.1334,  970.042,  117.5154,
 2071-May-04 18:00, , , 07 07 44.95, +17 23 42.0,   27.33687,    1.408951,   6.564101,  118.437092,  -0.939403,    7.3889,  969.892,  116.9557,
 2071-May-04 19:00, , , 07 10 15.07, +17 20 03.4,   27.77305,    1.463906,   6.550250,  117.927891,  -0.940479,    7.6433,  969.740,  116.3963,
 2071-May-04 20:00, , , 07 12 45.03, +17 16 18.0,   28.21115,    1.518567,   6.535678,  117.418701,  -0.941558,    7.8967,  969.586,  115.8371,
 2071-May-04 21:00, , , 07 15 14.82, +17 12 25.7,   28.65111,    1.572928,   6.520386,  116.909521,  -0.942638,    8.1490,  969.429,  115.2783,
 2071-May-04 22:00, , , 07 17 44.44, +17 08 26.6,   29.09289,    1.626983,   6.504377,  116.400352,  -0.943721,    8.4001,  969.270,  114.7196,
 2071-May-04 23:00, , , 07 20 13.89, +17 04 20.7,   29.53644,    1.680729,   6.487656,  115.891194,  -0.944806,    8.6500,  969.109,  114.1613,
 2071-May-05 00:00, , , 07 22 43.15, +17 00 08.1,   29.98171,    1.734159,   6.470223,  115.382046,  -0.945893,    8.8988,  968.946,  113.6032,
 2071-May-05 01:00, , , 07 25 12.24, +16 55 48.9,   30.42865,    1.787269,   6.452084,  114.872908,  -0.946983,    9.1463,  968.781,  113.0455,
 2071-May-05 02:00, , , 07 27 41.13, +16 51 23.0,   30.87721,    1.840052,   6.433240,  114.363781,  -0.948074,    9.3926,  968.614,  112.4880,
 2071-May-05 03:00, , , 07 30 09.84, +16 46 50.6,   31.32736,    1.892506,   6.413696,  113.854665,  -0.949168,    9.6376,  968.445,  111.9308,
 2071-May-05 04:00, , , 07 32 38.36, +16 42 11.7,   31.77902,    1.944624,   6.393454,  113.345560,  -0.950264,    9.8813,  968.274,  111.3739,
 2071-May-05 05:00, , , 07 35 06.69, +16 37 26.3,   32.23217,    1.996402,   6.372518,  112.836465,  -0.951363,   10.1236,  968.101,  110.8172,
 2071-May-05 06:00, , , 07 37 34.82, +16 32 34.4,   32.68675,    2.047835,   6.350892,  112.327382,  -0.952463,   10.3646,  967.925,  110.2609,
 2071-May-05 07:00, , , 07 40 02.75, +16 27 36.2,   33.14272,    2.098920,   6.328579,  111.818309,  -0.953566,   10.6042,  967.748,  109.7049,
 2071-May-05 08:00, , , 07 42 30.47, +16 22 31.7,   33.60001,    2.149651,   6.305582,  111.309247,  -0.954671,   10.8423,  967.570,  109.1492,
 2071-May-05 09:00, , , 07 44 58.00, +16 17 20.9,   34.05860,    2.200024,   6.281907,  110.800196,  -0.955778,   11.0791,  967.389,  108.5938,
 2071-May-05 10:00, , , 07 47 25.32, +16 12 03.9,   34.51842,    2.250035,   6.257555,  110.291155,  -0.956888,   11.3143,  967.206,  108.0387,
 2071-May-05 11:00, , , 07 49 52.43, +16 06 40.7,   34.97943,    2.299680,   6.232533,  109.782126,  -0.958000,   11.5481,  967.022,  107.4839,
 2071-May-05 12:00, , , 07 52 19.32, +16 01 11.4,   35.44159,    2.348956,   6.206842,  109.273108,  -0.959113,   11.7803,  966.836,  106.9295,
 2071-May-05 13:00, , , 07 54 46.01, +15 55 36.1,   35.90483,    2.397857,   6.180489,  108.764101,  -0.960229,   12.0110,  966.648,  106.3754,
 2071-May-05 14:00, , , 07 57 12.48, +15 49 54.8,   36.36913,    2.446381,   6.153476,  108.255105,  -0.961348,   12.2402,  966.459,  105.8216,
 2071-May-05 15:00, , , 07 59 38.73, +15 44 07.5,   36.83442,    2.494523,   6.125808,  107.746120,  -0.962468,   12.4677,  966.267,  105.2681,
 2071-May-05 16:00, , , 08 02 04.77, +15 38 14.3,   37.30066,    2.542280,   6.097489,  107.237146,  -0.963591,   12.6937,  966.074,  104.7149,
 2071-May-05 17:00, , , 08 04 30.58, +15 32 15.3,   37.76780,    2.589650,   6.068524,  106.728183,  -0.964716,   12.9180,  965.880,  104.1621,
 2071-May-05 18:00, , , 08 06 56.17, +15 26 10.5,   38.23580,    2.636627,   6.038917,  106.219231,  -0.965843,   13.1407,  965.683,  103.6096,
 2071-May-05 19:00, , , 08 09 21.54, +15 20 00.1,   38.70461,    2.683209,   6.008673,  105.710290,  -0.966972,   13.3617,  965.485,  103.0575,
 2071-May-05 20:00, , , 08 11 46.69, +15 13 43.9,   39.17417,    2.729393,   5.977796,  105.201361,  -0.968103,   13.5810,  965.286,  102.5057,
 2071-May-05 21:00, , , 08 14 11.61, +15 07 22.2,   39.64445,    2.775176,   5.946290,  104.692443,  -0.969237,   13.7985,  965.085,  101.9542,
 2071-May-05 22:00, , , 08 16 36.30, +15 00 54.9,   40.11539,    2.820555,   5.914162,  104.183536,  -0.970373,   14.0144,  964.882,  101.4031,
 2071-May-05 23:00, , , 08 19 00.76, +14 54 22.1,   40.58695,    2.865526,   5.881415,  103.674640,  -0.971511,   14.2285,  964.678,  100.8523,
 2071-May-06 00:00, , , 08 21 24.99, +14 47 43.9,   41.05908,    2.910088,   5.848054,  103.165755,  -0.972651,   14.4408,  964.472,  100.3019,
 2071-May-06 01:00, , , 08 23 48.99, +14 41 00.4,   41.53173,    2.954236,   5.814083,  102.656882,  -0.973793,   14.6513,  964.265,   99.7518,
 2071-May-06 02:00, , , 08 26 12.76, +14 34 11.5,   42.00486,    2.997970,   5.779510,  102.148020,  -0.974937,   14.8600,  964.056,   99.2021,
 2071-May-06 03:00, , , 08 28 36.30, +14 27 17.4,   42.47842,    3.041286,   5.744337,  101.639169,  -0.976083,   15.0669,  963.845,   98.6527,
 2071-May-06 04:00, , , 08 30 59.61, +14 20 18.2,   42.95237,    3.084182,   5.708570,  101.130330,  -0.977232,   15.2719,  963.634,   98.1037,
 2071-May-06 05:00, , , 08 33 22.68, +14 13 13.8,   43.42665,    3.126655,   5.672214,  100.621501,  -0.978383,   15.4751,  963.420,   97.5551,
 2071-May-06 06:00, , , 08 35 45.51, +14 06 04.3,   43.90122,    3.168704,   5.635275,  100.112684,  -0.979535,   15.6764,  963.206,   97.0068,
 2071-May-06 07:00, , , 08 38 08.12, +13 58 49.9,   44.37603,    3.210326,   5.597757,   99.603878,  -0.980690,   15.8758,  962.990,   96.4588,
 2071-May-06 08:00, , , 08 40 30.48, +13 51 30.6,   44.85105,    3.251520,   5.559667,   99.095084,  -0.981847,   16.0732,  962.772,   95.9113,
